start=new Date('2022-11-18T00:00:00.000Z').valueOf();
sats=[{"REV_AT_EPOCH":"2880","TLE_LINE2":"2 52677  53.2159 166.5234 0002335  42.6851 317.4322 15.08842630 28807","OBJECT_ID":"2022-053X","ARG_OF_PERICENTER":"42.6851","OBJECT_NAME":"STARLINK-4028","SITE":"AFETR","PERIOD":"95.437","MEAN_MOTION":"15.08842630","NORAD_CAT_ID":"52677","BSTAR":"0.00008027500000","MEAN_ELEMENT_THEORY":"SGP4","RA_OF_ASC_NODE":"166.5234","MEAN_MOTION_DDOT":"0.0000000000000","INCLINATION":"53.2159","MEAN_MOTION_DOT":"0.00000990","COUNTRY_CODE":"US","SEMIMAJOR_AXIS":"6917.872","LAUNCH_DATE":"2022-05-18","DECAY_DATE":null,"CENTER_NAME":"EARTH","TIME_SYSTEM":"UTC","PERIAPSIS":"538.122","RCS_SIZE":"LARGE","EPOCH":"2022-11-17T19:18:22.992192","FILE":"3661914","APOAPSIS":"541.353","GP_ID":"218097584","OBJECT_TYPE":"PAYLOAD","REF_FRAME":"TEME","ECCENTRICITY":"0.00023350","MEAN_ANOMALY":"317.4322","ELEMENT_SET_NO":"999","TLE_LINE1":"1 52677U 22053X   22321.80443278  .00000990  00000-0  80275-4 0  9999","CLASSIFICATION_TYPE":"U","EPHEMERIS_TYPE":"0"},{"EPHEMERIS_TYPE":"0","TLE_LINE1":"1 52678U 22053Y   22321.61403367  .00001143  00000-0  89930-4 0  9992","CLASSIFICATION_TYPE":"U","ELEMENT_SET_NO":"999","ECCENTRICITY":"0.00022980","MEAN_ANOMALY":"316.1282","FILE":"3661914","EPOCH":"2022-11-17T14:44:12.509088","REF_FRAME":"TEME","OBJECT_TYPE":"PAYLOAD","GP_ID":"218096341","APOAPSIS":"541.340","DECAY_DATE":null,"TIME_SYSTEM":"UTC","LAUNCH_DATE":"2022-05-18","CENTER_NAME":"EARTH","COUNTRY_CODE":"US","SEMIMAJOR_AXIS":"6917.885","MEAN_MOTION_DOT":"0.00001143","RCS_SIZE":"LARGE","PERIAPSIS":"538.160","RA_OF_ASC_NODE":"167.3811","MEAN_ELEMENT_THEORY":"SGP4","INCLINATION":"53.2163","MEAN_MOTION_DDOT":"0.0000000000000","NORAD_CAT_ID":"52678","MEAN_MOTION":"15.08838549","BSTAR":"0.00008993000000","SITE":"AFETR","OBJECT_NAME":"STARLINK-4074","ARG_OF_PERICENTER":"43.9892","OBJECT_ID":"2022-053Y","PERIOD":"95.438","TLE_LINE2":"2 52678  53.2163 167.3811 0002298  43.9892 316.1282 15.08838549 28793","REV_AT_EPOCH":"2879"},{"BSTAR":"-0.00005431400000","MEAN_MOTION":"15.08839511","NORAD_CAT_ID":"52679","PERIOD":"95.438","ARG_OF_PERICENTER":"70.0870","OBJECT_ID":"2022-053Z","SITE":"AFETR","OBJECT_NAME":"STARLINK-4031","TLE_LINE2":"2 52679  53.2162 168.3596 0001600  70.0870 290.0294 15.08839511 28723","REV_AT_EPOCH":"2872","MEAN_ANOMALY":"290.0294","ECCENTRICITY":"0.00016000","EPHEMERIS_TYPE":"0","TLE_LINE1":"1 52679U 22053Z   22321.39595491 -.00001152  00000-0 -54314-4 0  9998","CLASSIFICATION_TYPE":"U","ELEMENT_SET_NO":"999","OBJECT_TYPE":"PAYLOAD","APOAPSIS":"540.854","GP_ID":"218067400","REF_FRAME":"TEME","EPOCH":"2022-11-17T09:30:10.504224","FILE":"3661693","PERIAPSIS":"538.640","RCS_SIZE":"LARGE","COUNTRY_CODE":"US","SEMIMAJOR_AXIS":"6917.882","MEAN_MOTION_DOT":"-0.00001152","DECAY_DATE":null,"LAUNCH_DATE":"2022-05-18","TIME_SYSTEM":"UTC","CENTER_NAME":"EARTH","INCLINATION":"53.2162","MEAN_MOTION_DDOT":"0.0000000000000","MEAN_ELEMENT_THEORY":"SGP4","RA_OF_ASC_NODE":"168.3596"},{"PERIAPSIS":"538.197","RCS_SIZE":"LARGE","SEMIMAJOR_AXIS":"6917.895","COUNTRY_CODE":"US","MEAN_MOTION_DOT":"0.00001257","DECAY_DATE":null,"TIME_SYSTEM":"UTC","LAUNCH_DATE":"2022-05-18","CENTER_NAME":"EARTH","INCLINATION":"53.2154","MEAN_MOTION_DDOT":"0.0000000000000","MEAN_ELEMENT_THEORY":"SGP4","RA_OF_ASC_NODE":"168.8835","MEAN_ANOMALY":"317.6226","ECCENTRICITY":"0.00022590","EPHEMERIS_TYPE":"0","ELEMENT_SET_NO":"999","TLE_LINE1":"1 52680U 22053AA  22321.27819774  .00001257  00000-0  97069-4 0  9998","CLASSIFICATION_TYPE":"U","OBJECT_TYPE":"PAYLOAD","APOAPSIS":"541.323","GP_ID":"218065667","REF_FRAME":"TEME","EPOCH":"2022-11-17T06:40:36.284736","FILE":"3661693","TLE_LINE2":"2 52680  53.2154 168.8835 0002259  42.4940 317.6226 15.08835173 28720","REV_AT_EPOCH":"2872","BSTAR":"0.00009706900000","MEAN_MOTION":"15.08835173","NORAD_CAT_ID":"52680","PERIOD":"95.438","ARG_OF_PERICENTER":"42.4940","OBJECT_ID":"2022-053AA","SITE":"AFETR","OBJECT_NAME":"STARLINK-3774"},{"MEAN_ANOMALY":"324.7855","ECCENTRICITY":"0.00033820","EPHEMERIS_TYPE":"0","ELEMENT_SET_NO":"999","TLE_LINE1":"1 52681U 22053AB  22321.65723275 -.00000320  00000-0 -19653-5 0  9997","CLASSIFICATION_TYPE":"U","EPOCH":"2022-11-17T15:46:24.909600","FILE":"3661914","OBJECT_TYPE":"PAYLOAD","APOAPSIS":"542.063","GP_ID":"218098085","REF_FRAME":"TEME","COUNTRY_CODE":"US","SEMIMAJOR_AXIS":"6917.858","MEAN_MOTION_DOT":"-0.00000320","TIME_SYSTEM":"UTC","DECAY_DATE":null,"LAUNCH_DATE":"2022-05-18","CENTER_NAME":"EARTH","PERIAPSIS":"537.384","RCS_SIZE":"LARGE","MEAN_ELEMENT_THEORY":"SGP4","RA_OF_ASC_NODE":"167.1811","INCLINATION":"53.2163","MEAN_MOTION_DDOT":"0.0000000000000","MEAN_MOTION":"15.08847171","NORAD_CAT_ID":"52681","BSTAR":"-0.00000196530000","ARG_OF_PERICENTER":"35.3361","OBJECT_ID":"2022-053AB","SITE":"AFETR","OBJECT_NAME":"STARLINK-4068","PERIOD":"95.437","TLE_LINE2":"2 52681  53.2163 167.1811 0003382  35.3361 324.7855 15.08847171 28765","REV_AT_EPOCH":"2876"},{"REV_AT_EPOCH":"2877","TLE_LINE2":"2 52682  53.2171 167.4263 0002422  38.5320 321.5844 15.08834021 28777","BSTAR":"0.00008719000000","NORAD_CAT_ID":"52682","MEAN_MOTION":"15.08834021","PERIOD":"95.438","OBJECT_NAME":"STARLINK-4017","SITE":"AFETR","OBJECT_ID":"2022-053AC","ARG_OF_PERICENTER":"38.5320","RCS_SIZE":"LARGE","PERIAPSIS":"538.088","TIME_SYSTEM":"UTC","DECAY_DATE":null,"LAUNCH_DATE":"2022-05-18","CENTER_NAME":"EARTH","MEAN_MOTION_DOT":"0.00001099","COUNTRY_CODE":"US","SEMIMAJOR_AXIS":"6917.899","MEAN_MOTION_DDOT":"0.0000000000000","INCLINATION":"53.2171","RA_OF_ASC_NODE":"167.4263","MEAN_ELEMENT_THEORY":"SGP4","ELEMENT_SET_NO":"999","TLE_LINE1":"1 52682U 22053AC  22321.60204506  .00001099  00000-0  87190-4 0  9996","CLASSIFICATION_TYPE":"U","EPHEMERIS_TYPE":"0","MEAN_ANOMALY":"321.5844","ECCENTRICITY":"0.00024220","REF_FRAME":"TEME","GP_ID":"218096842","APOAPSIS":"541.439","OBJECT_TYPE":"PAYLOAD","FILE":"3661914","EPOCH":"2022-11-17T14:26:56.693184"},{"NORAD_CAT_ID":"52683","MEAN_MOTION":"15.08837031","BSTAR":"0.00012761000000","SITE":"AFETR","OBJECT_NAME":"STARLINK-4039","ARG_OF_PERICENTER":"48.2076","OBJECT_ID":"2022-053AD","PERIOD":"95.438","TLE_LINE2":"2 52683  53.2151 167.2141 0002035  48.2076 311.9090 15.08837031 28764","REV_AT_EPOCH":"2876","EPHEMERIS_TYPE":"0","TLE_LINE1":"1 52683U 22053AD  22321.64987926  .00001743  00000-0  12761-3 0  9992","ELEMENT_SET_NO":"999","CLASSIFICATION_TYPE":"U","MEAN_ANOMALY":"311.9090","ECCENTRICITY":"0.00020350","FILE":"3661914","EPOCH":"2022-11-17T15:35:49.568064","REF_FRAME":"TEME","OBJECT_TYPE":"PAYLOAD","APOAPSIS":"541.162","GP_ID":"218097593","TIME_SYSTEM":"UTC","DECAY_DATE":null,"LAUNCH_DATE":"2022-05-18","CENTER_NAME":"EARTH","COUNTRY_CODE":"US","SEMIMAJOR_AXIS":"6917.889","MEAN_MOTION_DOT":"0.00001743","RCS_SIZE":"LARGE","PERIAPSIS":"538.347","RA_OF_ASC_NODE":"167.2141","MEAN_ELEMENT_THEORY":"SGP4","INCLINATION":"53.2151","MEAN_MOTION_DDOT":"0.0000000000000"},{"BSTAR":"0.00008436500000","NORAD_CAT_ID":"52684","MEAN_MOTION":"15.08836287","PERIOD":"95.438","SITE":"AFETR","OBJECT_NAME":"STARLINK-4014","ARG_OF_PERICENTER":"42.8408","OBJECT_ID":"2022-053AE","REV_AT_EPOCH":"2876","TLE_LINE2":"2 52684  53.2160 167.1513 0002416  42.8408 317.2773 15.08836287 28768","EPHEMERIS_TYPE":"0","ELEMENT_SET_NO":"999","TLE_LINE1":"1 52684U 22053AE  22321.66460189  .00001054  00000-0  84365-4 0  9997","CLASSIFICATION_TYPE":"U","MEAN_ANOMALY":"317.2773","ECCENTRICITY":"0.00024160","REF_FRAME":"TEME","OBJECT_TYPE":"PAYLOAD","GP_ID":"218097843","APOAPSIS":"541.428","FILE":"3661914","EPOCH":"2022-11-17T15:57:01.603296","RCS_SIZE":"LARGE","PERIAPSIS":"538.085","DECAY_DATE":null,"TIME_SYSTEM":"UTC","LAUNCH_DATE":"2022-05-18","CENTER_NAME":"EARTH","COUNTRY_CODE":"US","SEMIMAJOR_AXIS":"6917.892","MEAN_MOTION_DOT":"0.00001054","INCLINATION":"53.2160","MEAN_MOTION_DDOT":"0.0000000000000","RA_OF_ASC_NODE":"167.1513","MEAN_ELEMENT_THEORY":"SGP4"},{"REV_AT_EPOCH":"2877","TLE_LINE2":"2 52685  53.2172 166.3563 0002371  41.8828 318.2345 15.08827955 28772","BSTAR":"-0.00009740600000","NORAD_CAT_ID":"52685","MEAN_MOTION":"15.08827955","PERIOD":"95.438","OBJECT_NAME":"STARLINK-4029","SITE":"AFETR","OBJECT_ID":"2022-053AF","ARG_OF_PERICENTER":"41.8828","RCS_SIZE":"LARGE","PERIAPSIS":"538.142","TIME_SYSTEM":"UTC","DECAY_DATE":null,"LAUNCH_DATE":"2022-05-18","CENTER_NAME":"EARTH","MEAN_MOTION_DOT":"-0.00001838","SEMIMAJOR_AXIS":"6917.917","COUNTRY_CODE":"US","MEAN_MOTION_DDOT":"0.0000000000000","INCLINATION":"53.2172","RA_OF_ASC_NODE":"166.3563","MEAN_ELEMENT_THEORY":"SGP4","ELEMENT_SET_NO":"999","TLE_LINE1":"1 52685U 22053AF  22321.84125175 -.00001838  00000-0 -97406-4 0  9993","CLASSIFICATION_TYPE":"U","EPHEMERIS_TYPE":"0","MEAN_ANOMALY":"318.2345","ECCENTRICITY":"0.00023710","REF_FRAME":"TEME","GP_ID":"218097585","APOAPSIS":"541.422","OBJECT_TYPE":"PAYLOAD","FILE":"3661914","EPOCH":"2022-11-17T20:11:24.151200"},{"PERIOD":"95.437","OBJECT_NAME":"STARLINK-4005","SITE":"AFETR","OBJECT_ID":"2022-053AG","ARG_OF_PERICENTER":"47.5487","BSTAR":"0.00012020000000","NORAD_CAT_ID":"52686","MEAN_MOTION":"15.08845211","REV_AT_EPOCH":"2874","TLE_LINE2":"2 52686  53.2155 167.5009 0002173  47.5487 312.5688 15.08845211 28745","REF_FRAME":"TEME","APOAPSIS":"541.233","GP_ID":"218096342","OBJECT_TYPE":"PAYLOAD","FILE":"3661914","EPOCH":"2022-11-17T14:05:43.726560","ELEMENT_SET_NO":"999","TLE_LINE1":"1 52686U 22053AG  22321.58731165  .00001626  00000-0  12020-3 0  9998","CLASSIFICATION_TYPE":"U","EPHEMERIS_TYPE":"0","MEAN_ANOMALY":"312.5688","ECCENTRICITY":"0.00021730","MEAN_MOTION_DDOT":"0.0000000000000","INCLINATION":"53.2155","RA_OF_ASC_NODE":"167.5009","MEAN_ELEMENT_THEORY":"SGP4","RCS_SIZE":"LARGE","PERIAPSIS":"538.226","DECAY_DATE":null,"TIME_SYSTEM":"UTC","LAUNCH_DATE":"2022-05-18","CENTER_NAME":"EARTH","MEAN_MOTION_DOT":"0.00001626","COUNTRY_CODE":"US","SEMIMAJOR_AXIS":"6917.864"}];
